0 FENGYUN 1C DEB
1 37921U 99025ENW 13271.14531951  .00000168  00000-0  15903-3 0  1101
2 37921 099.2445 247.9815 0084710 323.8359 035.6928 13.93092653205759
0 FENGYUN 1C DEB
1 37921U 99025ENW 13273.15631151  .00000168  00000-0  15904-3 0  1119
2 37921 099.2441 249.9891 0084898 318.3163 041.1567 13.93093538206036
0 FENGYUN 1C DEB
1 37921U 99025ENW 13275.16729951  .00000178  00000-0  16670-3 0  1121
2 37921 099.2441 251.9972 0085098 312.6993 046.7123 13.93094744206310
0 FENGYUN 1C DEB
1 37921U 99025ENW 13280.76933547  .00000183  00000-0  17095-3 0  1130
2 37921 099.2443 257.5916 0084899 297.4729 061.7889 13.93097461207098
0 FENGYUN 1C DEB
1 37921U 99025ENW 13284.14492132  .00000176  00000-0  16572-3 0  1148
2 37921 099.2447 260.9630 0084689 288.2314 070.9589 13.93098765207567
